STARLINK-5714           
1 55614U 23020AX  25255.23087681  .00000218  00000+0  31244-4 0  9990
2 55614  43.0024 228.3828 0001314 272.5068  87.5624 15.02537298142379
STARLINK-5712           
1 55615U 23020AY  25255.22286372  .00001052  00000+0  92931-4 0  9995
2 55615  43.0025 241.3741 0001241 266.5880  93.4820 15.02535585142229
STARLINK-5710           
1 55616U 23020AZ  25254.34976332  .00000490  00000+0  51363-4 0  9999
2 55616  43.0028 246.0034 0001099 274.0483  86.0234 15.02540638142091
STARLINK-5721           
1 55617U 23020BA  25254.28883287  .00000367  00000+0  42211-4 0  9994
2 55617  43.0030 246.4047 0001321 276.1192  83.9500 15.02538412142089
STARLINK-5717           
1 55618U 23020BB  25254.28218041 -.00000602  00000+0 -29518-4 0  9994
2 55618  43.0029 246.3556 0001315 274.9854  85.0838 15.02532105142086
STARLINK-5720           
1 55619U 23020BC  25255.27601484  .00000525  00000+0  53948-4 0  9998
2 55619  43.0029 240.9114 0001174 276.8208  83.2501 15.02535953142232
STARLINK-5718           
1 55620U 23020BD  25255.27268790 -.00000312  00000+0 -80293-5 0  9999
2 55620  43.0036 240.8851 0001230 268.5416  91.5285 15.02533023142238
STARLINK-5709           
1 55621U 23020BE  25254.02071760  .00000753  00000+0  70762-4 0  9997
2 55621  43.0027 247.8339 0000790 288.7694  71.3063 15.02541850142045
STARLINK-5702           
1 55622U 23020BF  25255.27046802 -.00000542  00000+0 -25078-4 0  9993
2 55622  43.0039 240.8724 0001157 268.9747  91.0963 15.02533776142234
STARLINK-5698           
1 55623U 23020BG  25255.26603146 -.00000420  00000+0 -16049-4 0  9996
2 55623  43.0036 240.8361 0001357 269.9876  90.0811 15.02531914142238
STARLINK-5484           
1 55628U 23021A   25254.08898072  .00000691  00000+0  65675-4 0  9992
2 55628  69.9983 297.3796 0003771 267.7782  92.2946 14.98329122141393
STARLINK-5497           
1 55629U 23021B   25253.82609879  .00000310  00000+0  33781-4 0  9990
2 55629  69.9983 298.0688 0003036 270.7530  89.3281 14.98330855141351
STARLINK-5303           
1 55630U 23021C   25254.55210909  .00000581  00000+0  56505-4 0  9994
2 55630  69.9980 296.1858 0003551 269.2732  90.8020 14.98333116141460
STARLINK-5558           
1 55631U 23021D   25255.52848200  .00000882  00000+0  81740-4 0  9997
2 55631  69.9983 293.5712 0003444 266.5385  93.5380 14.98329297141610
STARLINK-5546           
1 55632U 23021E   25254.41024385  .00000299  00000+0  32831-4 0  9994
2 55632  69.9986 296.4917 0003138 267.9186  92.1614 14.98330810141446
STARLINK-5498           
1 55633U 23021F   25255.40746558  .00000181  00000+0  23001-4 0  9997
2 55633  69.9982 293.9519 0003421 270.9588  89.1179 14.98330933141592
STARLINK-5500           
1 55634U 23021G   25254.54389321  .00001842  00000+0  16220-3 0  9992
2 55634  69.9985 296.1559 0003346 269.2542  90.8233 14.98308457141464
STARLINK-5495           
1 55635U 23021H   25254.32238865 -.00000298  00000+0 -17137-4 0  9990
2 55635  69.9978 276.7179 0003294 269.9309  90.1473 14.98328844141921
STARLINK-5218           
1 55636U 23021J   25255.53263430  .00000097  00000+0  15895-4 0  9995
2 55636  69.9986 293.5864 0003445 270.6743  89.4021 14.98333160141611
STARLINK-5062           
1 55637U 23021K   25255.47398456  .00001490  00000+0  13264-3 0  9991
2 55637  69.9958 273.9101 0003139 267.7979  92.2820 14.98343853142097
STARLINK-5507           
1 55638U 23021L   25255.53680789  .00000220  00000+0  26261-4 0  9994
2 55638  69.9988 293.6015 0003623 270.1935  89.8809 14.98332852141615
STARLINK-5508           
1 55639U 23021M   25254.31837530  .00000210  00000+0  25442-4 0  9997
2 55639  69.9979 276.7006 0003671 269.3229  90.7510 14.98331672141920
STARLINK-5069           
1 55640U 23021N   25255.44895781 -.00000432  00000+0 -28397-4 0  9996
2 55640  69.9973 273.8219 0003901 269.4125  90.6587 14.98328636142090
STARLINK-5065           
1 55641U 23021P   25255.47817519  .00000420  00000+0  43003-4 0  9999
2 55641  69.9959 273.9226 0003251 269.4385  90.6402 14.98333897142091
STARLINK-5483           
1 55643U 23021R   25254.35160365 -.00000457  00000+0 -30475-4 0  9998
2 55643  69.9984 276.8111 0003647 270.0009  90.0733 14.98333640141924
STARLINK-5502           
1 55644U 23021S   25254.46426967  .00000518  00000+0  51255-4 0  9999
2 55644  69.9977 276.4073 0003408 270.0692  90.0076 14.98322745141949
STARLINK-5510           
1 55647U 23021V   25254.03030500  .00000530  00000+0  52220-4 0  9996
2 55647  69.9983 277.2990 0003670 267.1503  92.9236 14.98341539141889
STARLINK-5501           
1 55648U 23021W   25255.52824703  .00000513  00000+0  50788-4 0  9996
2 55648  69.9972 273.6992 0003418 267.4110  92.6658 14.98322251142108
STARLINK-5469           
1 55649U 23021X   25255.50735287  .00001931  00000+0  16962-3 0  9993
2 55649  70.0003 273.6261 0002689 261.6632  98.4222 14.98328512142107
STARLINK-5494           
1 55650U 23021Y   25255.45313244 -.00000374  00000+0 -23574-4 0  9994
2 55650  69.9978 273.8380 0003384 269.6579  90.4192 14.98328642142092
STARLINK-5506           
1 55651U 23021Z   25255.46982880 -.00000035  00000+0  48793-5 0  9998
2 55651  69.9971 273.8968 0003282 270.5313  89.5470 14.98330502142098
STARLINK-5487           
1 55652U 23021AA  25255.51154387 -.00000322  00000+0 -19195-4 0  9991
2 55652  69.9981 273.6404 0003552 270.3520  89.7232 14.98328029142102
STARLINK-5067           
1 55653U 23021AB  25255.49482827  .00001248  00000+0  11234-3 0  9993
2 55653  69.9974 273.5820 0003413 270.5009  89.5759 14.98343019142104
STARLINK-5070           
1 55654U 23021AC  25255.48235034  .00000178  00000+0  22711-4 0  9993
2 55654  69.9971 273.9408 0003272 269.4428  90.6356 14.98331240142090
STARLINK-5267           
1 55655U 23021AD  25255.45329390 -.00046746  00000+0 -39735-2 0  9995
2 55655  70.0023 253.9640 0002862 225.8051 134.2873 14.97964466142573
STARLINK-5326           
1 55656U 23021AE  25255.49067080 -.00000293  00000+0 -16707-4 0  9998
2 55656  69.9968 273.5656 0003770 271.9566  88.1161 14.98330916142100
STARLINK-5328           
1 55657U 23021AF  25255.26099330 -.00001611  00000+0 -12721-3 0  9993
2 55657  69.9974 254.4956 0003575 266.6739  93.4011 14.98327152142555
STARLINK-5307           
1 55658U 23021AG  25254.50179485  .00000103  00000+0  16420-4 0  9994
2 55658  69.9983 276.1355 0003624 268.9662  91.1082 14.98330459141955
STARLINK-5477           
1 55659U 23021AH  25255.45708154 -.00004482  00000+0 -36799-3 0  9997
2 55659  69.9988 253.9781 0003320 271.0686  89.0092 14.98333855142570
STARLINK-5467           
1 55660U 23021AJ  25255.27344338  .00003670  00000+0  31501-3 0  9991
2 55660  70.0013 254.1467 0003844 269.0812  90.9906 14.98357568142568
STARLINK-5475           
1 55661U 23021AK  25255.44058850 -.00014795  00000+0 -12392-2 0  9990
2 55661  69.9995 253.9230 0002002 227.4963 132.6027 14.98193860142583
STARLINK-5479           
1 55662U 23021AL  25255.48493771  .00000143  00000+0  19470-4 0  9996
2 55662  69.9974 253.2974 0003660 268.2787  91.7954 14.99140147142605
STARLINK-5473           
1 55663U 23021AM  25255.29851638  .00000069  00000+0  13579-4 0  9997
2 55663  69.9972 254.2251 0003511 269.1858  90.8899 14.98331058142551
STARLINK-5480           
1 55664U 23021AN  25255.24840024  .00006063  00000+0  51474-3 0  9995
2 55664  69.9986 254.4526 0003741 271.5871  88.4860 14.98381857142554
STARLINK-5474           
1 55665U 23021AP  25255.42786312 -.00003656  00000+0 -29875-3 0  9992
2 55665  69.9979 253.8750 0003345 272.0942  87.9834 14.98330156142588
STARLINK-5456           
1 55667U 23021AR  25255.28181963 -.00000472  00000+0 -31784-4 0  9995
2 55667  69.9976 254.1672 0003288 271.7367  88.3416 14.98334397142567
STARLINK-5455           
1 55668U 23021AS  25255.24427987 -.00000119  00000+0 -21720-5 0  9999
2 55668  69.9978 254.4380 0003694 269.4615  90.6121 14.98329653142557
STARLINK-5459           
1 55669U 23021AT  25255.43643366 -.00017846  00000+0 -14980-2 0  9994
2 55669  69.9999 253.9043 0004370 253.4985 106.5694 14.98163600142578
STARLINK-5423           
1 55670U 23021AU  25255.55721592  .00000640  00000+0  61445-4 0  9999
2 55670  69.9978 253.5218 0003724 271.3813  88.6920 14.98320662142607
STARLINK-5460           
1 55671U 23021AV  25255.26949036  .00000170  00000+0  22021-4 0  9998
2 55671  69.9974 254.5155 0003350 269.5678  90.5097 14.98327870142557
STARLINK-5463           
1 55673U 23021AX  25255.28600111  .00000417  00000+0  42764-4 0  9990
2 55673  69.9996 254.1802 0003195 270.5043  89.5750 14.98322926142565
STARLINK-5462           
1 55674U 23021AY  25255.27764428  .00000080  00000+0  14465-4 0  9995
2 55674  69.9980 254.1507 0003346 269.1041  90.9734 14.98332957142564
STARLINK-5232           
1 55675U 23021AZ  25255.26929788 -.00000189  00000+0 -80043-5 0  9995
2 55675  69.9967 254.1245 0003743 270.4750  89.5980 14.98330704142567
STARLINK-5300           
1 55676U 23021BA  25255.21918038 -.00001992  00000+0 -15915-3 0  9994
2 55676  70.0014 234.4797 0003441 269.0249  91.0516 14.98341041143042
STARLINK-5324           
1 55677U 23021BB  25255.20648685 -.00000381  00000+0 -24129-4 0  9991
2 55677  69.9991 234.4308 0003589 267.1615  92.9134 14.98332097143048
STARLINK-5592           
1 55741U 23028A   25255.48304562 -.00000478  00000+0 -32249-4 0  9992
2 55741  69.9997 333.8971 0003368 270.4800  89.5973 14.98329261139535
STARLINK-5594           
1 55742U 23028B   25255.48734874  .00002421  00000+0  21087-3 0  9991
2 55742  70.0014 333.9129 0003204 269.9162  90.1630 14.98285246139349
STARLINK-5602           
1 55743U 23028C   25255.49140996  .00000710  00000+0  67317-4 0  9995
2 55743  70.0005 333.9269 0003200 268.8224  91.2568 14.98316795139344
STARLINK-5601           
1 55744U 23028D   25254.48633360 -.00057484  00000+0 -49039-2 0  9997
2 55744  70.0022 336.4408 0003962 303.4292  56.6488 14.97895314139190
